{
  "type": "FeatureCollection",
  "features": [
    {
      "type": "Feature",
      "properties": {
        "norad_id": 36744,
        "name": "COMS 1",
        "group": "weather",
        "lat": 2.363209532728578,
        "lon": 110.32089163186008,
        "alt_km": 35788.43235180663,
        "timestamp": "2025-12-19T16:54:43.892246+00:00",
        "meta_object_name": "COMS 1",
        "meta_object_id": "2010-032A",
        "meta_epoch": "2025-12-18T22:17:51.601344",
        "meta_mean_motion": 1.00272183,
        "meta_eccentricity": 6.387e-05,
        "meta_inclination": 4.3545,
        "meta_ra_of_asc_node": 77.9302,
        "meta_arg_of_pericenter": 201.3894,
        "meta_mean_anomaly": 271.1008,
        "meta_ephemeris_type": 0,
        "meta_classification_type": "U",
        "meta_norad_cat_id": 36744,
        "meta_element_set_no": 999,
        "meta_rev_at_epoch": 4928,
        "meta_bstar": 0,
        "meta_mean_motion_dot": -3.23e-06,
        "meta_mean_motion_ddot": 0,
        "tle_line1": "1 36744U 10032A   25352.92906946 -.00000323  00000+0  00000+0 0  9999",
        "tle_line2": "2 36744   4.3545  77.9302 0000638 201.3894 271.1008  1.00272183 49285"
      },
      "geometry": {
        "type": "Point",
        "coordinates": [
          110.32089163186008,
          2.363209532728578
        ]
      }
    },
    {
      "type": "Feature",
      "properties": {
        "norad_id": 37214,
        "name": "FENGYUN 3B",
        "group": "weather",
        "lat": -28.710407042763375,
        "lon": -151.24340460812604,
        "alt_km": 858.6242476787093,
        "timestamp": "2025-12-19T16:54:43.892267+00:00",
        "meta_object_name": "FENGYUN 3B",
        "meta_object_id": "2010-059A",
        "meta_epoch": "2025-12-19T07:44:51.080352",
        "meta_mean_motion": 14.14792515,
        "meta_eccentricity": 0.00217238,
        "meta_inclination": 98.9903,
        "meta_ra_of_asc_node": 33.3465,
        "meta_arg_of_pericenter": 338.9046,
        "meta_mean_anomaly": 86.4493,
        "meta_ephemeris_type": 0,
        "meta_classification_type": "U",
        "meta_norad_cat_id": 37214,
        "meta_element_set_no": 999,
        "meta_rev_at_epoch": 78199,
        "meta_bstar": 0.00018489505,
        "meta_mean_motion_dot": 3.12e-06,
        "meta_mean_motion_ddot": 0,
        "tle_line1": "1 37214U 10059A   25353.32281343  .00000312  00000+0  18490-3 0  9996",
        "tle_line2": "2 37214  98.9903  33.3465 0021723 338.9046  86.4493 14.14792515781996"
      },
      "geometry": {
        "type": "Point",
        "coordinates": [
          -151.24340460812604,
          -28.710407042763375
        ]
      }
    },
    {
      "type": "Feature",
      "properties": {
        "norad_id": 37849,
        "name": "SUOMI NPP",
        "group": "weather",
        "lat": 11.563606700203627,
        "lon": 112.7951307957986,
        "alt_km": 827.4696767754422,
        "timestamp": "2025-12-19T16:54:43.892290+00:00",
        "meta_object_name": "SUOMI NPP",
        "meta_object_id": "2011-061A",
        "meta_epoch": "2025-12-17T23:31:21.474624",
        "meta_mean_motion": 14.19515682,
        "meta_eccentricity": 0.00023932,
        "meta_inclination": 98.7779,
        "meta_ra_of_asc_node": 289.2746,
        "meta_arg_of_pericenter": 111.1248,
        "meta_mean_anomaly": 249.0184,
        "meta_ephemeris_type": 0,
        "meta_classification_type": "U",
        "meta_norad_cat_id": 37849,
        "meta_element_set_no": 999,
        "meta_rev_at_epoch": 73273,
        "meta_bstar": 4.8615036e-05,
        "meta_mean_motion_dot": 5.8e-07,
        "meta_mean_motion_ddot": 0,
        "tle_line1": "1 37849U 11061A   25351.98010966  .00000058  00000+0  48615-4 0  9995",
        "tle_line2": "2 37849  98.7779 289.2746 0002393 111.1248 249.0184 14.19515682732735"
      },
      "geometry": {
        "type": "Point",
        "coordinates": [
          112.7951307957986,
          11.563606700203627
        ]
      }
    },
    {
      "type": "Feature",
      "properties": {
        "norad_id": 38552,
        "name": "METEOSAT-10 (MSG-3)",
        "group": "weather",
        "lat": -4.17711240313018,
        "lon": -17.463963562297366,
        "alt_km": 35782.42348688454,
        "timestamp": "2025-12-19T16:54:43.892313+00:00",
        "meta_object_name": "METEOSAT-10 (MSG-3)",
        "meta_object_id": "2012-035B",
        "meta_epoch": "2025-12-19T01:16:53.237280",
        "meta_mean_motion": 1.00276486,
        "meta_eccentricity": 6.945e-05,
        "meta_inclination": 4.2428,
        "meta_ra_of_asc_node": 61.7071,
        "meta_arg_of_pericenter": 269.7675,
        "meta_mean_anomaly": 135.9214,
        "meta_ephemeris_type": 0,
        "meta_classification_type": "U",
        "meta_norad_cat_id": 38552,
        "meta_element_set_no": 999,
        "meta_rev_at_epoch": 4905,
        "meta_bstar": 0,
        "meta_mean_motion_dot": 1.7e-07,
        "meta_mean_motion_ddot": 0,
        "tle_line1": "1 38552U 12035B   25353.05339395  .00000017  00000+0  00000+0 0  9995",
        "tle_line2": "2 38552   4.2428  61.7071 0000694 269.7675 135.9214  1.00276486 49055"
      },
      "geometry": {
        "type": "Point",
        "coordinates": [
          -17.463963562297366,
          -4.17711240313018
        ]
      }
    },
    {
      "type": "Feature",
      "properties": {
        "norad_id": 38771,
        "name": "METOP-B",
        "group": "weather",
        "lat": 66.15030067336197,
        "lon": 23.332415617801843,
        "alt_km": 813.0210931382926,
        "timestamp": "2025-12-19T16:54:43.892349+00:00",
        "meta_object_name": "METOP-B",
        "meta_object_id": "2012-049A",
        "meta_epoch": "2025-12-19T06:27:29.960928",
        "meta_mean_motion": 14.21410786,
        "meta_eccentricity": 0.00031452,
        "meta_inclination": 98.679,
        "meta_ra_of_asc_node": 43.1169,
        "meta_arg_of_pericenter": 130.4102,
        "meta_mean_anomaly": 229.7351,
        "meta_ephemeris_type": 0,
        "meta_classification_type": "U",
        "meta_norad_cat_id": 38771,
        "meta_element_set_no": 999,
        "meta_rev_at_epoch": 68770,
        "meta_bstar": 7.2382726e-05,
        "meta_mean_motion_dot": 1.15e-06,
        "meta_mean_motion_ddot": 0,
        "tle_line1": "1 38771U 12049A   25353.26909677  .00000115  00000+0  72383-4 0  9999",
        "tle_line2": "2 38771  98.6790  43.1169 0003145 130.4102 229.7351 14.21410786687706"
      },
      "geometry": {
        "type": "Point",
        "coordinates": [
          23.332415617801843,
          66.15030067336197
        ]
      }
    },
    {
      "type": "Feature",
      "properties": {
        "norad_id": 39216,
        "name": "INSAT-3D",
        "group": "weather",
        "lat": 0.6827333843055282,
        "lon": 111.65572602886493,
        "alt_km": 35791.26177454122,
        "timestamp": "2025-12-19T16:54:43.892372+00:00",
        "meta_object_name": "INSAT-3D",
        "meta_object_id": "2013-038B",
        "meta_epoch": "2025-12-17T17:21:59.330304",
        "meta_mean_motion": 1.00267779,
        "meta_eccentricity": 0.00012009,
        "meta_inclination": 1.4572,
        "meta_ra_of_asc_node": 84.9421,
        "meta_arg_of_pericenter": 166.0293,
        "meta_mean_anomaly": 225.6028,
        "meta_ephemeris_type": 0,
        "meta_classification_type": "U",
        "meta_norad_cat_id": 39216,
        "meta_element_set_no": 999,
        "meta_rev_at_epoch": 4526,
        "meta_bstar": 0,
        "meta_mean_motion_dot": -3.16e-06,
        "meta_mean_motion_ddot": 0,
        "tle_line1": "1 39216U 13038B   25351.72360336 -.00000316  00000+0  00000+0 0  9991",
        "tle_line2": "2 39216   1.4572  84.9421 0001200 166.0293 225.6028  1.00267779 45261"
      },
      "geometry": {
        "type": "Point",
        "coordinates": [
          111.65572602886493,
          0.6827333843055282
        ]
      }
    },
    {
      "type": "Feature",
      "properties": {
        "norad_id": 39260,
        "name": "FENGYUN 3C",
        "group": "weather",
        "lat": 8.18312982458887,
        "lon": 152.27301605543633,
        "alt_km": 831.1772437639283,
        "timestamp": "2025-12-19T16:54:43.892390+00:00",
        "meta_object_name": "FENGYUN 3C",
        "meta_object_id": "2013-052A",
        "meta_epoch": "2025-12-19T05:55:36.234624",
        "meta_mean_motion": 14.15698294,
        "meta_eccentricity": 0.00146503,
        "meta_inclination": 98.4769,
        "meta_ra_of_asc_node": 330.6088,
        "meta_arg_of_pericenter": 177.043,
        "meta_mean_anomaly": 183.0834,
        "meta_ephemeris_type": 0,
        "meta_classification_type": "U",
        "meta_norad_cat_id": 39260,
        "meta_element_set_no": 999,
        "meta_rev_at_epoch": 63310,
        "meta_bstar": 5.5439304e-05,
        "meta_mean_motion_dot": 6.8e-07,
        "meta_mean_motion_ddot": 0,
        "tle_line1": "1 39260U 13052A   25353.24694716  .00000068  00000+0  55439-4 0  9991",
        "tle_line2": "2 39260  98.4769 330.6088 0014650 177.0430 183.0834 14.15698294633100"
      },
      "geometry": {
        "type": "Point",
        "coordinates": [
          152.27301605543633,
          8.18312982458887
        ]
      }
    }
  ]
}